{
  "type": "FeatureCollection",
  "features": [
    {
      "type": "Feature",
      "properties": {
        "norad_id": 43823,
        "name": "GEO-KOMPSAT-2A",
        "group": "weather",
        "lat": -0.01931326667949285,
        "lon": -22.379898695074758,
        "alt_km": 35787.17610231824,
        "timestamp": "2025-12-24T07:45:05.841956+00:00",
        "meta_object_name": "GEO-KOMPSAT-2A",
        "meta_object_id": "2018-100A",
        "meta_epoch": "2025-12-23T18:52:41.269728",
        "meta_mean_motion": 1.00270306,
        "meta_eccentricity": 2.833e-05,
        "meta_inclination": 0.0456,
        "meta_ra_of_asc_node": 176.9766,
        "meta_arg_of_pericenter": 280.5392,
        "meta_mean_anomaly": 46.4855,
        "meta_ephemeris_type": 0,
        "meta_classification_type": "U",
        "meta_norad_cat_id": 43823,
        "meta_element_set_no": 999,
        "meta_rev_at_epoch": 2587,
        "meta_bstar": 0,
        "meta_mean_motion_dot": -3.23e-06,
        "meta_mean_motion_ddot": 0,
        "tle_line1": "1 43823U 18100A   25357.78658877 -.00000323  00000+0  00000+0 0  9995",
        "tle_line2": "2 43823   0.0456 176.9766 0000283 280.5392  46.4855  1.00270306 25874"
      },
      "geometry": {
        "type": "Point",
        "coordinates": [
          -22.379898695074758,
          -0.01931326667949285
        ]
      }
    },
    {
      "type": "Feature",
      "properties": {
        "norad_id": 44387,
        "name": "METEOR-M2 2",
        "group": "weather",
        "lat": -25.587185156865537,
        "lon": -17.504219852753746,
        "alt_km": 817.556161605824,
        "timestamp": "2025-12-24T07:45:05.841973+00:00",
        "meta_object_name": "METEOR-M2 2",
        "meta_object_id": "2019-038A",
        "meta_epoch": "2025-12-23T21:45:25.699680",
        "meta_mean_motion": 14.24295722,
        "meta_eccentricity": 0.00017607,
        "meta_inclination": 98.8982,
        "meta_ra_of_asc_node": 337.772,
        "meta_arg_of_pericenter": 127.5638,
        "meta_mean_anomaly": 232.5701,
        "meta_ephemeris_type": 0,
        "meta_classification_type": "U",
        "meta_norad_cat_id": 44387,
        "meta_element_set_no": 999,
        "meta_rev_at_epoch": 33634,
        "meta_bstar": 1.4573804e-05,
        "meta_mean_motion_dot": -1.2e-07,
        "meta_mean_motion_ddot": 0,
        "tle_line1": "1 44387U 19038A   25357.90654745 -.00000012  00000+0  14574-4 0  9997",
        "tle_line2": "2 44387  98.8982 337.7720 0001760 127.5638 232.5701 14.24295722336344"
      },
      "geometry": {
        "type": "Point",
        "coordinates": [
          -17.504219852753746,
          -25.587185156865537
        ]
      }
    },
    {
      "type": "Feature",
      "properties": {
        "norad_id": 47719,
        "name": "ARKTIKA-M 1",
        "group": "weather",
        "lat": 61.89899692139204,
        "lon": -168.6961317205237,
        "alt_km": 37698.590421283116,
        "timestamp": "2025-12-24T07:45:05.841996+00:00",
        "meta_object_name": "ARKTIKA-M 1",
        "meta_object_id": "2021-016A",
        "meta_epoch": "2025-12-23T01:01:51.743136",
        "meta_mean_motion": 2.00630806,
        "meta_eccentricity": 0.72093828,
        "meta_inclination": 63.1759,
        "meta_ra_of_asc_node": 82.5898,
        "meta_arg_of_pericenter": 269.1646,
        "meta_mean_anomaly": 15.5425,
        "meta_ephemeris_type": 0,
        "meta_classification_type": "U",
        "meta_norad_cat_id": 47719,
        "meta_element_set_no": 999,
        "meta_rev_at_epoch": 3525,
        "meta_bstar": 0,
        "meta_mean_motion_dot": -6.7e-07,
        "meta_mean_motion_ddot": 0,
        "tle_line1": "1 47719U 21016A   25357.04295999 -.00000067  00000+0  00000+0 0  9999",
        "tle_line2": "2 47719  63.1759  82.5898 7209382 269.1646  15.5425  2.00630806 35258"
      },
      "geometry": {
        "type": "Point",
        "coordinates": [
          -168.6961317205237,
          61.89899692139204
        ]
      }
    },
    {
      "type": "Feature",
      "properties": {
        "norad_id": 49008,
        "name": "FENGYUN 3E",
        "group": "weather",
        "lat": 68.63871020904786,
        "lon": -158.1116673225942,
        "alt_km": 818.9872310804967,
        "timestamp": "2025-12-24T07:45:05.842013+00:00",
        "meta_object_name": "FENGYUN 3E",
        "meta_object_id": "2021-062A",
        "meta_epoch": "2025-12-23T22:46:53.020992",
        "meta_mean_motion": 14.19880168,
        "meta_eccentricity": 8.902e-05,
        "meta_inclination": 98.7473,
        "meta_ra_of_asc_node": 358.337,
        "meta_arg_of_pericenter": 194.3119,
        "meta_mean_anomaly": 165.8033,
        "meta_ephemeris_type": 0,
        "meta_classification_type": "U",
        "meta_norad_cat_id": 49008,
        "meta_element_set_no": 999,
        "meta_rev_at_epoch": 23171,
        "meta_bstar": -0.00013999704,
        "meta_mean_motion_dot": -3.41e-06,
        "meta_mean_motion_ddot": 0,
        "tle_line1": "1 49008U 21062A   25357.94922478 -.00000341  00000+0 -14000-3 0  9996",
        "tle_line2": "2 49008  98.7473 358.3370 0000890 194.3119 165.8033 14.19880168231711"
      },
      "geometry": {
        "type": "Point",
        "coordinates": [
          -158.1116673225942,
          68.63871020904786
        ]
      }
    },
    {
      "type": "Feature",
      "properties": {
        "norad_id": 51850,
        "name": "GOES 18",
        "group": "weather",
        "lat": 0.006218209768875833,
        "lon": 72.36974516841411,
        "alt_km": 35786.69976025404,
        "timestamp": "2025-12-24T07:45:05.842025+00:00",
        "meta_object_name": "GOES 18",
        "meta_object_id": "2022-021A",
        "meta_epoch": "2025-12-23T09:03:24.767136",
        "meta_mean_motion": 1.00270861,
        "meta_eccentricity": 3.517e-05,
        "meta_inclination": 0.0106,
        "meta_ra_of_asc_node": 106.0734,
        "meta_arg_of_pericenter": 218.6088,
        "meta_mean_anomaly": 126.3393,
        "meta_ephemeris_type": 0,
        "meta_classification_type": "U",
        "meta_norad_cat_id": 51850,
        "meta_element_set_no": 999,
        "meta_rev_at_epoch": 483,
        "meta_bstar": 0,
        "meta_mean_motion_dot": 1.18e-06,
        "meta_mean_motion_ddot": 0,
        "tle_line1": "1 51850U 22021A   25357.37736999  .00000118  00000+0  00000+0 0  9999",
        "tle_line2": "2 51850   0.0106 106.0734 0000351 218.6088 126.3393  1.00270861  4838"
      },
      "geometry": {
        "type": "Point",
        "coordinates": [
          72.36974516841411,
          0.006218209768875833
        ]
      }
    },
    {
      "type": "Feature",
      "properties": {
        "norad_id": 54234,
        "name": "NOAA 21 (JPSS-2)",
        "group": "weather",
        "lat": 75.81694384900696,
        "lon": 152.02248308198898,
        "alt_km": 819.6803300417341,
        "timestamp": "2025-12-24T07:45:05.842037+00:00",
        "meta_object_name": "NOAA 21 (JPSS-2)",
        "meta_object_id": "2022-150A",
        "meta_epoch": "2025-12-23T21:07:36.823584",
        "meta_mean_motion": 14.19527102,
        "meta_eccentricity": 0.00017176,
        "meta_inclination": 98.7477,
        "meta_ra_of_asc_node": 294.0502,
        "meta_arg_of_pericenter": 15.3533,
        "meta_mean_anomaly": 344.7695,
        "meta_ephemeris_type": 0,
        "meta_classification_type": "U",
        "meta_norad_cat_id": 54234,
        "meta_element_set_no": 999,
        "meta_rev_at_epoch": 16167,
        "meta_bstar": 6.378389e-05,
        "meta_mean_motion_dot": 9.1e-07,
        "meta_mean_motion_ddot": 0,
        "tle_line1": "1 54234U 22150A   25357.88028731  .00000091  00000+0  63784-4 0  9998",
        "tle_line2": "2 54234  98.7477 294.0502 0001717  15.3533 344.7695 14.19527102161671"
      },
      "geometry": {
        "type": "Point",
        "coordinates": [
          152.02248308198898,
          75.81694384900696
        ]
      }
    },
    {
      "type": "Feature",
      "properties": {
        "norad_id": 54743,
        "name": "METEOSAT-12 (MTG-I1)",
        "group": "weather",
        "lat": -0.049938887514155074,
        "lon": -150.96726160136333,
        "alt_km": 35782.7181117811,
        "timestamp": "2025-12-24T07:45:05.842049+00:00",
        "meta_object_name": "METEOSAT-12 (MTG-I1)",
        "meta_object_id": "2022-170C",
        "meta_epoch": "2025-12-23T21:41:25.259712",
        "meta_mean_motion": 1.00270844,
        "meta_eccentricity": 0.00015718,
        "meta_inclination": 0.6983,
        "meta_ra_of_asc_node": 25.4663,
        "meta_arg_of_pericenter": 240.5377,
        "meta_mean_anomaly": 151.7194,
        "meta_ephemeris_type": 0,
        "meta_classification_type": "U",
        "meta_norad_cat_id": 54743,
        "meta_element_set_no": 999,
        "meta_rev_at_epoch": 1122,
        "meta_bstar": 0,
        "meta_mean_motion_dot": 1.3e-07,
        "meta_mean_motion_ddot": 0,
        "tle_line1": "1 54743U 22170C   25357.90376458  .00000013  00000+0  00000+0 0  9991",
        "tle_line2": "2 54743   0.6983  25.4663 0001571 240.5377 151.7194  1.00270844 11229"
      },
      "geometry": {
        "type": "Point",
        "coordinates": [
          -150.96726160136333,
          -0.049938887514155074
        ]
      }
    }
  ]
}